{
  "type": "FeatureCollection",
  "features": [
    {
      "type": "Feature",
      "properties": {
        "norad_id": 43603,
        "name": "BEIDOU-3 M11 (C25)",
        "group": "beidou",
        "lat": 16.564437274733994,
        "lon": -159.96635899259445,
        "alt_km": 21511.51401448626,
        "timestamp": "2025-12-04T03:47:54.808684+00:00",
        "meta_object_name": "BEIDOU-3 M11 (C25)",
        "meta_object_id": "2018-067B",
        "meta_epoch": "2025-12-03T01:17:17.799072",
        "meta_mean_motion": 1.86227129,
        "meta_eccentricity": 0.0005566,
        "meta_inclination": 54.1806,
        "meta_ra_of_asc_node": 187.6562,
        "meta_arg_of_pericenter": 36.1126,
        "meta_mean_anomaly": 324.0194,
        "meta_ephemeris_type": 0,
        "meta_classification_type": "U",
        "meta_norad_cat_id": 43603,
        "meta_element_set_no": 999,
        "meta_rev_at_epoch": 4949,
        "meta_bstar": 0,
        "meta_mean_motion_dot": 1.19e-06,
        "meta_mean_motion_ddot": 0,
        "tle_line1": "1 43603U 18067B   25337.05367823  .00000119  00000+0  00000+0 0  9991",
        "tle_line2": "2 43603  54.1806 187.6562 0005566  36.1126 324.0194  1.86227129 49495"
      },
      "geometry": {
        "type": "Point",
        "coordinates": [
          -159.96635899259445,
          16.564437274733994
        ]
      }
    },
    {
      "type": "Feature",
      "properties": {
        "norad_id": 43622,
        "name": "BEIDOU-3 M13 (C32)",
        "group": "beidou",
        "lat": 39.50614071046785,
        "lon": 102.21656868505329,
        "alt_km": 21528.99555847749,
        "timestamp": "2025-12-04T03:47:54.808696+00:00",
        "meta_object_name": "BEIDOU-3 M13 (C32)",
        "meta_object_id": "2018-072A",
        "meta_epoch": "2025-12-03T13:07:53.541408",
        "meta_mean_motion": 1.86230692,
        "meta_eccentricity": 0.0005674,
        "meta_inclination": 56.4512,
        "meta_ra_of_asc_node": 69.1249,
        "meta_arg_of_pericenter": 298.6305,
        "meta_mean_anomaly": 61.3164,
        "meta_ephemeris_type": 0,
        "meta_classification_type": "U",
        "meta_norad_cat_id": 43622,
        "meta_element_set_no": 999,
        "meta_rev_at_epoch": 4901,
        "meta_bstar": 0,
        "meta_mean_motion_dot": -5e-07,
        "meta_mean_motion_ddot": 0,
        "tle_line1": "1 43622U 18072A   25337.54714747 -.00000050  00000+0  00000+0 0  9998",
        "tle_line2": "2 43622  56.4512  69.1249 0005674 298.6305  61.3164  1.86230692 49010"
      },
      "geometry": {
        "type": "Point",
        "coordinates": [
          102.21656868505329,
          39.50614071046785
        ]
      }
    },
    {
      "type": "Feature",
      "properties": {
        "norad_id": 43623,
        "name": "BEIDOU-3 M14 (C33)",
        "group": "beidou",
        "lat": 32.43179443675194,
        "lon": -135.79134842195182,
        "alt_km": 21532.34180815534,
        "timestamp": "2025-12-04T03:47:54.808707+00:00",
        "meta_object_name": "BEIDOU-3 M14 (C33)",
        "meta_object_id": "2018-072B",
        "meta_epoch": "2025-12-01T19:14:30.937344",
        "meta_mean_motion": 1.86230707,
        "meta_eccentricity": 0.00030488,
        "meta_inclination": 56.4513,
        "meta_ra_of_asc_node": 69.1766,
        "meta_arg_of_pericenter": 335.7773,
        "meta_mean_anomaly": 24.2115,
        "meta_ephemeris_type": 0,
        "meta_classification_type": "U",
        "meta_norad_cat_id": 43623,
        "meta_element_set_no": 999,
        "meta_rev_at_epoch": 4897,
        "meta_bstar": 0,
        "meta_mean_motion_dot": -4.3e-07,
        "meta_mean_motion_ddot": 0,
        "tle_line1": "1 43623U 18072B   25335.80174696 -.00000043  00000+0  00000+0 0  9991",
        "tle_line2": "2 43623  56.4513  69.1766 0003048 335.7773  24.2115  1.86230707 48976"
      },
      "geometry": {
        "type": "Point",
        "coordinates": [
          -135.79134842195182,
          32.43179443675194
        ]
      }
    },
    {
      "type": "Feature",
      "properties": {
        "norad_id": 43647,
        "name": "BEIDOU-3 M16 (C35)",
        "group": "beidou",
        "lat": 27.052961871311933,
        "lon": -31.643297731141107,
        "alt_km": 21505.93381574034,
        "timestamp": "2025-12-04T03:47:54.808718+00:00",
        "meta_object_name": "BEIDOU-3 M16 (C35)",
        "meta_object_id": "2018-078A",
        "meta_epoch": "2025-12-03T00:48:25.625088",
        "meta_mean_motion": 1.86232114,
        "meta_eccentricity": 0.00069753,
        "meta_inclination": 54.271,
        "meta_ra_of_asc_node": 306.8606,
        "meta_arg_of_pericenter": 18.45,
        "meta_mean_anomaly": 341.5609,
        "meta_ephemeris_type": 0,
        "meta_classification_type": "U",
        "meta_norad_cat_id": 43647,
        "meta_element_set_no": 999,
        "meta_rev_at_epoch": 4850,
        "meta_bstar": 0,
        "meta_mean_motion_dot": -6.5e-07,
        "meta_mean_motion_ddot": 0,
        "tle_line1": "1 43647U 18078A   25337.03362992 -.00000065  00000+0  00000+0 0  9992",
        "tle_line2": "2 43647  54.2710 306.8606 0006975  18.4500 341.5609  1.86232114 48502"
      },
      "geometry": {
        "type": "Point",
        "coordinates": [
          -31.643297731141107,
          27.052961871311933
        ]
      }
    },
    {
      "type": "Feature",
      "properties": {
        "norad_id": 43648,
        "name": "BEIDOU-3 M15 (C34)",
        "group": "beidou",
        "lat": -40.166413263483975,
        "lon": -90.60144727618525,
        "alt_km": 21529.251948199235,
        "timestamp": "2025-12-04T03:47:54.808729+00:00",
        "meta_object_name": "BEIDOU-3 M15 (C34)",
        "meta_object_id": "2018-078B",
        "meta_epoch": "2025-12-01T00:21:40.976640",
        "meta_mean_motion": 1.86232,
        "meta_eccentricity": 0.0003569,
        "meta_inclination": 54.2686,
        "meta_ra_of_asc_node": 306.9322,
        "meta_arg_of_pericenter": 17.0419,
        "meta_mean_anomaly": 342.9634,
        "meta_ephemeris_type": 0,
        "meta_classification_type": "U",
        "meta_norad_cat_id": 43648,
        "meta_element_set_no": 999,
        "meta_rev_at_epoch": 4848,
        "meta_bstar": 0,
        "meta_mean_motion_dot": -5.6e-07,
        "meta_mean_motion_ddot": 0,
        "tle_line1": "1 43648U 18078B   25335.01505760 -.00000056  00000+0  00000+0 0  9991",
        "tle_line2": "2 43648  54.2686 306.9322 0003569  17.0419 342.9634  1.86232000 48485"
      },
      "geometry": {
        "type": "Point",
        "coordinates": [
          -90.60144727618525,
          -40.166413263483975
        ]
      }
    },
    {
      "type": "Feature",
      "properties": {
        "norad_id": 43683,
        "name": "BEIDOU-3 G1 (C59)",
        "group": "beidou",
        "lat": 0.556221622259331,
        "lon": -89.72481719985409,
        "alt_km": 35787.514351969316,
        "timestamp": "2025-12-04T03:47:54.808740+00:00",
        "meta_object_name": "BEIDOU-3 G1 (C59)",
        "meta_object_id": "2018-085A",
        "meta_epoch": "2025-12-03T19:33:27.900864",
        "meta_mean_motion": 1.00273498,
        "meta_eccentricity": 0.0002037,
        "meta_inclination": 2.5836,
        "meta_ra_of_asc_node": 103.2315,
        "meta_arg_of_pericenter": 63.7689,
        "meta_mean_anomaly": 339.3049,
        "meta_ephemeris_type": 0,
        "meta_classification_type": "U",
        "meta_norad_cat_id": 43683,
        "meta_element_set_no": 999,
        "meta_rev_at_epoch": 2610,
        "meta_bstar": 0,
        "meta_mean_motion_dot": -2.6e-06,
        "meta_mean_motion_ddot": 0,
        "tle_line1": "1 43683U 18085A   25337.81490626 -.00000260  00000+0  00000+0 0  9999",
        "tle_line2": "2 43683   2.5836 103.2315 0002037  63.7689 339.3049  1.00273498 26100"
      },
      "geometry": {
        "type": "Point",
        "coordinates": [
          -89.72481719985409,
          0.556221622259331
        ]
      }
    },
    {
      "type": "Feature",
      "properties": {
        "norad_id": 43706,
        "name": "BEIDOU-3 M17 (C36)",
        "group": "beidou",
        "lat": -16.94059542891063,
        "lon": 21.635514960375843,
        "alt_km": 21535.364131581693,
        "timestamp": "2025-12-04T03:47:54.808752+00:00",
        "meta_object_name": "BEIDOU-3 M17 (C36)",
        "meta_object_id": "2018-093A",
        "meta_epoch": "2025-12-03T14:10:37.280064",
        "meta_mean_motion": 1.86228161,
        "meta_eccentricity": 0.0006346,
        "meta_inclination": 54.1727,
        "meta_ra_of_asc_node": 188.9327,
        "meta_arg_of_pericenter": 306.3477,
        "meta_mean_anomaly": 234.3147,
        "meta_ephemeris_type": 0,
        "meta_classification_type": "U",
        "meta_norad_cat_id": 43706,
        "meta_element_set_no": 999,
        "meta_rev_at_epoch": 4789,
        "meta_bstar": 0,
        "meta_mean_motion_dot": 1.14e-06,
        "meta_mean_motion_ddot": 0,
        "tle_line1": "1 43706U 18093A   25337.59070926  .00000114  00000+0  00000+0 0  9993",
        "tle_line2": "2 43706  54.1727 188.9327 0006346 306.3477 234.3147  1.86228161 47892"
      },
      "geometry": {
        "type": "Point",
        "coordinates": [
          21.635514960375843,
          -16.94059542891063
        ]
      }
    }
  ]
}